<?xml version="1.0" encoding="utf-8" ?>
<kml xmlns="http://www.opengis.net/kml/2.2">
<Document id="root_doc">
<Schema name="lines_reti" id="lines_reti">
	<SimpleField name="seq" type="int"></SimpleField>
</Schema>
<Folder><name>lines_reti</name>
  <Placemark>
	<Style><LineStyle><color>ff0000ff</color></LineStyle><PolyStyle><fill>0</fill></PolyStyle></Style>
	<ExtendedData><SchemaData schemaUrl="#lines_reti">
		<SimpleData name="seq">1</SimpleData>
	</SchemaData></ExtendedData>
      <LineString><altitudeMode>absolute</altitudeMode><coordinates>19.2868424185435,47.4674706794176,160 19.2843882803863,47.4659666876735,160</coordinates></LineString>
  </Placemark>
  <Placemark>
	<Style><LineStyle><color>ff0000ff</color></LineStyle><PolyStyle><fill>0</fill></PolyStyle></Style>
	<ExtendedData><SchemaData schemaUrl="#lines_reti">
		<SimpleData name="seq">2</SimpleData>
	</SchemaData></ExtendedData>
      <LineString><altitudeMode>absolute</altitudeMode><coordinates>19.2843366746774,47.4659395534067,160 19.2824616672536,47.4648347892183,160</coordinates></LineString>
  </Placemark>
  <Placemark>
	<Style><LineStyle><color>ff0000ff</color></LineStyle><PolyStyle><fill>0</fill></PolyStyle></Style>
	<ExtendedData><SchemaData schemaUrl="#lines_reti">
		<SimpleData name="seq">3</SimpleData>
	</SchemaData></ExtendedData>
      <LineString><altitudeMode>absolute</altitudeMode><coordinates>19.2823756577387,47.4648658004596,160 19.2814524889459,47.4653077086605,160</coordinates></LineString>
  </Placemark>
  <Placemark>
	<Style><LineStyle><color>ff0000ff</color></LineStyle><PolyStyle><fill>0</fill></PolyStyle></Style>
	<ExtendedData><SchemaData schemaUrl="#lines_reti">
		<SimpleData name="seq">4</SimpleData>
	</SchemaData></ExtendedData>
      <LineString><altitudeMode>absolute</altitudeMode><coordinates>19.2814868927519,47.4653968651279,160 19.2835339192054,47.4666140296013,160</coordinates></LineString>
  </Placemark>
  <Placemark>
	<Style><LineStyle><color>ff0000ff</color></LineStyle><PolyStyle><fill>0</fill></PolyStyle></Style>
	<ExtendedData><SchemaData schemaUrl="#lines_reti">
		<SimpleData name="seq">5</SimpleData>
	</SchemaData></ExtendedData>
      <LineString><altitudeMode>absolute</altitudeMode><coordinates>19.2836428645909,47.4666760499663,160 19.2859364516537,47.4679939654228,160</coordinates></LineString>
  </Placemark>
  <Placemark>
	<Style><LineStyle><color>ff0000ff</color></LineStyle><PolyStyle><fill>0</fill></PolyStyle></Style>
	<ExtendedData><SchemaData schemaUrl="#lines_reti">
		<SimpleData name="seq">6</SimpleData>
	</SchemaData></ExtendedData>
      <LineString><altitudeMode>absolute</altitudeMode><coordinates>19.2860224611685,47.4679590798512,160 19.2868194826729,47.4675210701485,160</coordinates></LineString>
  </Placemark>
</Folder>
</Document></kml>
